{"type": "FeatureCollection", "features": [ {"type": "Feature", "properties": {"norad_id": 66643, "name": "STARLINK-35918", "group": "last-30-days", "lat": -52.16186393521447, "lon": 153.13808350420456, "alt_km": 331.89019302918496, "timestamp": "2025-12-04T09:47:36.303981+00:00", "meta": {"OBJECT_NAME": "STARLINK-35918", "OBJECT_ID": "2025-271AC", "EPOCH": "2025-12-04T04:04:03.427968", "MEAN_MOTION": 15.81721981, "ECCENTRICITY": 8.59e-05, "INCLINATION": 53.1559, "RA_OF_ASC_NODE": 229.2128, "ARG_OF_PERICENTER": 153.2014, "MEAN_ANOMALY": 206.9054, "EPHEMERIS_TYPE": 0, "CLASSIFICATION_TYPE": "U", "NORAD_CAT_ID": 66643, "ELEMENT_SET_NO": 999, "REV_AT_EPOCH": 286, "BSTAR": -0.0042278, "MEAN_MOTION_DOT": -0.00793257, "MEAN_MOTION_DDOT": 0}, "tle": {"line1": "1 66643U 25271AC  25338.16948412 -.00793257  00000+0 -42278-2 0  9997", "line2": "2 66643  53.1559 229.2128 0000859 153.2014 206.9054 15.81721981  2864"}}, "geometry": {"type": "Point", "coordinates": [153.13808350420456, -52.16186393521447]}}, {"type": "Feature", "properties": {"norad_id": 66644, "name": "STARLINK-35938", "group": "last-30-days", "lat": -51.60292351971663, "lon": 156.8951720853448, "alt_km": 330.9290210734507, "timestamp": "2025-12-04T09:47:36.303991+00:00", "meta": {"OBJECT_NAME": "STARLINK-35938", "OBJECT_ID": "2025-271AD", "EPOCH": "2025-12-04T02:32:31.627968", "MEAN_MOTION": 15.82000303, "ECCENTRICITY": 0.0001645, "INCLINATION": 53.1559, "RA_OF_ASC_NODE": 229.5273, "ARG_OF_PERICENTER": 20.9453, "MEAN_ANOMALY": 339.1638, "EPHEMERIS_TYPE": 0, "CLASSIFICATION_TYPE": "U", "NORAD_CAT_ID": 66644, "ELEMENT_SET_NO": 999, "REV_AT_EPOCH": 285, "BSTAR": -0.0031088, "MEAN_MOTION_DOT": -0.00604274, "MEAN_MOTION_DDOT": 0}, "tle": {"line1": "1 66644U 25271AD  25338.10592162 -.00604274  00000+0 -31088-2 0  9996", "line2": "2 66644  53.1559 229.5273 0001645  20.9453 339.1638 15.82000303  2855"}}, "geometry": {"type": "Point", "coordinates": [156.8951720853448, -51.60292351971663]}}, {"type": "Feature", "properties": {"norad_id": 66645, "name": "SHENZHOU-22", "group": "last-30-days", "lat": 34.13023079672109, "lon": -162.86743184997044, "alt_km": 392.15747769309655, "timestamp": "2025-12-04T09:47:36.304001+00:00", "meta": {"OBJECT_NAME": "SHENZHOU-22", "OBJECT_ID": "2025-272A", "EPOCH": "2025-12-03T17:53:39.447744", "MEAN_MOTION": 15.58598848, "ECCENTRICITY": 0.00100687, "INCLINATION": 41.4679, "RA_OF_ASC_NODE": 71.2873, "ARG_OF_PERICENTER": 322.1315, "MEAN_ANOMALY": 37.8814, "EPHEMERIS_TYPE": 0, "CLASSIFICATION_TYPE": "U", "NORAD_CAT_ID": 66645, "ELEMENT_SET_NO": 999, "REV_AT_EPOCH": 26263, "BSTAR": 0.00035132982, "MEAN_MOTION_DOT": 0.00027527, "MEAN_MOTION_DDOT": 0}, "tle": {"line1": "1 66645U 25272A   25337.74559546  .00027527  00000+0  35133-3 0  9990", "line2": "2 66645  41.4679  71.2873 0010068 322.1315  37.8814 15.58598848262631"}}, "geometry": {"type": "Point", "coordinates": [-162.86743184997044, 34.13023079672109]}}, {"type": "Feature", "properties": {"norad_id": 66646, "name": "CZ-2F R/B", "group": "last-30-days", "lat": -25.52466933151948, "lon": -83.9850976426186, "alt_km": 190.98375294623384, "timestamp": "2025-12-04T09:47:36.304025+00:00", "meta": {"OBJECT_NAME": "CZ-2F R/B", "OBJECT_ID": "2025-272B", "EPOCH": "2025-11-26T11:17:54.506400", "MEAN_MOTION": 16.01945612, "ECCENTRICITY": 0.01210796, "INCLINATION": 41.4431, "RA_OF_ASC_NODE": 114.9009, "ARG_OF_PERICENTER": 133.7676, "MEAN_ANOMALY": 227.3272, "EPHEMERIS_TYPE": 0, "CLASSIFICATION_TYPE": "U", "NORAD_CAT_ID": 66646, "ELEMENT_SET_NO": 999, "REV_AT_EPOCH": 21, "BSTAR": 0.00029319366, "MEAN_MOTION_DOT": 0.00449059, "MEAN_MOTION_DDOT": 7.567612e-06}, "tle": {"line1": "1 66646U 25272B   25330.47076975  .00449059  75676-5  29319-3 0  9998", "line2": "2 66646  41.4431 114.9009 0121079 133.7676 227.3272 16.01945612   217"}}, "geometry": {"type": "Point", "coordinates": [-83.9850976426186, -25.52466933151948]}}, {"type": "Feature", "properties": {"norad_id": 66647, "name": "COSMOS 2597 (RODNIK-S 22)", "group": "last-30-days", "lat": -43.67453434379433, "lon": -75.60319255979, "alt_km": 1498.5333110398888, "timestamp": "2025-12-04T09:47:36.304037+00:00", "meta": {"OBJECT_NAME": "COSMOS 2597 (RODNIK-S 22)", "OBJECT_ID": "2025-273A", "EPOCH": "2025-12-04T04:13:48.642816", "MEAN_MOTION": 12.41950973, "ECCENTRICITY": 0.0008119, "INCLINATION": 82.4982, "RA_OF_ASC_NODE": 291.7674, "ARG_OF_PERICENTER": 309.2024, "MEAN_ANOMALY": 50.8333, "EPHEMERIS_TYPE": 0, "CLASSIFICATION_TYPE": "U", "NORAD_CAT_ID": 66647, "ELEMENT_SET_NO": 999, "REV_AT_EPOCH": 107, "BSTAR": -0.00015287, "MEAN_MOTION_DOT": -1.1e-07, "MEAN_MOTION_DDOT": 0}, "tle": {"line1": "1 66647U 25273A   25338.17625744 -.00000011  00000+0 -15287-3 0  9994", "line2": "2 66647  82.4982 291.7674 0008119 309.2024  50.8333 12.41950973  1070"}}, "geometry": {"type": "Point", "coordinates": [-75.60319255979, -43.67453434379433]}}, {"type": "Feature", "properties": {"norad_id": 66648, "name": "COSMOS 2598 (RODNIK-S 23)", "group": "last-30-days", "lat": -34.2762123417413, "lon": -73.51984985760363, "alt_km": 1497.3941988724082, "timestamp": "2025-12-04T09:47:36.304049+00:00", "meta": {"OBJECT_NAME": "COSMOS 2598 (RODNIK-S 23)", "OBJECT_ID": "2025-273B", "EPOCH": "2025-12-04T04:10:49.408608", "MEAN_MOTION": 12.42253094, "ECCENTRICITY": 0.000821, "INCLINATION": 82.5023, "RA_OF_ASC_NODE": 291.7744, "ARG_OF_PERICENTER": 297.7809, "MEAN_ANOMALY": 62.2438, "EPHEMERIS_TYPE": 0, "CLASSIFICATION_TYPE": "U", "NORAD_CAT_ID": 66648, "ELEMENT_SET_NO": 999, "REV_AT_EPOCH": 107, "BSTAR": 5.4042e-05, "MEAN_MOTION_DOT": 1.7e-07, "MEAN_MOTION_DDOT": 0}, "tle": {"line1": "1 66648U 25273B   25338.17418297  .00000017  00000+0  54042-4 0  9995", "line2": "2 66648  82.5023 291.7744 0008210 297.7809  62.2438 12.42253094  1074"}}, "geometry": {"type": "Point", "coordinates": [-73.51984985760363, -34.2762123417413]}}, {"type": "Feature", "properties": {"norad_id": 66649, "name": "COSMOS 2599 (RODNIK-S 24)", "group": "last-30-days", "lat": -52.318418559266114, "lon": -78.18113689186143, "alt_km": 1499.9706236532656, "timestamp": "2025-12-04T09:47:36.304060+00:00", "meta": {"OBJECT_NAME": "COSMOS 2599 (RODNIK-S 24)", "OBJECT_ID": "2025-273C", "EPOCH": "2025-12-04T04:16:34.426272", "MEAN_MOTION": 12.41671767, "ECCENTRICITY": 0.0008336, "INCLINATION": 82.5023, "RA_OF_ASC_NODE": 291.7777, "ARG_OF_PERICENTER": 319.5382, "MEAN_ANOMALY": 40.5076, "EPHEMERIS_TYPE": 0, "CLASSIFICATION_TYPE": "U", "NORAD_CAT_ID": 66649, "ELEMENT_SET_NO": 999, "REV_AT_EPOCH": 107, "BSTAR": -8.1605e-05, "MEAN_MOTION_DOT": -1e-08, "MEAN_MOTION_DDOT": 0}, "tle": {"line1": "1 66649U 25273C   25338.17817623 -.00000001  00000+0 -81605-4 0  9992", "line2": "2 66649  82.5023 291.7777 0008336 319.5382  40.5076 12.41671767  1076"}}, "geometry": {"type": "Point", "coordinates": [-78.18113689186143, -52.318418559266114]}}, {"type": "Feature", "properties": {"norad_id": 66650, "name": "2025-274A", "group": "last-30-days", "lat": -38.7937109509332, "lon": 79.47373054516382, "alt_km": 596.2957071007404, "timestamp": "2025-12-04T09:47:36.304070+00:00", "meta": {"OBJECT_NAME": "2025-274A", "OBJECT_ID": "2025-274A", "EPOCH": "2025-12-04T00:45:47.106144", "MEAN_MOTION": 14.91614176, "ECCENTRICITY": 0.0010407, "INCLINATION": 97.7385, "RA_OF_ASC_NODE": 265.3799, "ARG_OF_PERICENTER": 285.2129, "MEAN_ANOMALY": 74.7939, "EPHEMERIS_TYPE": 0, "CLASSIFICATION_TYPE": "U", "NORAD_CAT_ID": 66650, "ELEMENT_SET_NO": 999, "REV_AT_EPOCH": 110, "BSTAR": 0.00036384, "MEAN_MOTION_DOT": 3.6e-05, "MEAN_MOTION_DDOT": 0}, "tle": {"line1": "1 66650U 25274A   25338.03179521  .00003600  00000+0  36384-3 0  9997", "line2": "2 66650  97.7385 265.3799 0010407 285.2129  74.7939 14.91614176  1107"}}, "geometry": {"type": "Point", "coordinates": [79.47373054516382, -38.7937109509332]}}, {"type": "Feature", "properties": {"norad_id": 66651, "name": "2025-274B", "group": "last-30-days", "lat": -40.45519004229311, "lon": 79.09095281226227, "alt_km": 595.797642073634, "timestamp": "2025-12-04T09:47:36.304081+00:00", "meta": {"OBJECT_NAME": "2025-274B", "OBJECT_ID": "2025-274B", "EPOCH": "2025-12-04T00:45:21.574080", "MEAN_MOTION": 14.91692437, "ECCENTRICITY": 0.0010679, "INCLINATION": 97.7381, "RA_OF_ASC_NODE": 265.3798, "ARG_OF_PERICENTER": 284.831, "MEAN_ANOMALY": 75.1726, "EPHEMERIS_TYPE": 0, "CLASSIFICATION_TYPE": "U", "NORAD_CAT_ID": 66651, "ELEMENT_SET_NO": 999, "REV_AT_EPOCH": 110, "BSTAR": 0.00075013, "MEAN_MOTION_DOT": 7.502e-05, "MEAN_MOTION_DDOT": 0}, "tle": {"line1": "1 66651U 25274B   25338.03149970  .00007502  00000+0  75013-3 0  9990", "line2": "2 66651  97.7381 265.3798 0010679 284.8310  75.1726 14.91692437  1106"}}, "geometry": {"type": "Point", "coordinates": [79.09095281226227, -40.45519004229311]}}, {"type": "Feature", "properties": {"norad_id": 66652, "name": "2025-274C", "group": "last-30-days", "lat": -44.50766376121596, "lon": 78.07042025447937, "alt_km": 595.9072333505892, "timestamp": "2025-12-04T09:47:36.304092+00:00", "meta": {"OBJECT_NAME": "2025-274C", "OBJECT_ID": "2025-274C", "EPOCH": "2025-12-03T18:17:57.681024", "MEAN_MOTION": 14.91827269, "ECCENTRICITY": 0.00104455, "INCLINATION": 97.7384, "RA_OF_ASC_NODE": 265.118, "ARG_OF_PERICENTER": 292.3547, "MEAN_ANOMALY": 67.6564, "EPHEMERIS_TYPE": 0, "CLASSIFICATION_TYPE": "U", "NORAD_CAT_ID": 66652, "ELEMENT_SET_NO": 999, "REV_AT_EPOCH": 106, "BSTAR": 0.00043073165, "MEAN_MOTION_DOT": 4.296e-05, "MEAN_MOTION_DDOT": 0}, "tle": {"line1": "1 66652U 25274C   25337.76247316  .00004296  00000+0  43073-3 0  9991", "line2": "2 66652  97.7384 265.1180 0010445 292.3547  67.6564 14.91827269  1064"}}, "geometry": {"type": "Point", "coordinates": [78.07042025447937, -44.50766376121596]}}]}